STARLINK-3569           
1 51811U 22017AV  26005.03774512  .00000169  00000+0  28706-4 0  9992
2 51811  53.2172 264.8671 0001397  79.9829 280.1320 15.08836507214350
STARLINK-3610           
1 51812U 22017AW  26004.97978235 -.00001147  00000+0 -54006-4 0  9994
2 51812  53.2162 255.1263 0001417  86.8220 273.2934 15.08838889214466
STARLINK-3552           
1 51813U 22017AX  26005.09386639  .00000603  00000+0  55959-4 0  9992
2 51813  53.2171 254.6428 0001341  83.7234 276.3911 15.08837044214484
STARLINK-3599           
1 51814U 22017AY  26005.10489769 -.00000362  00000+0 -46713-5 0  9996
2 51814  53.2162 254.5647 0001381  89.4316 270.6834 15.08841554214487
STARLINK-3604           
1 51815U 22017AZ  26004.97610171 -.00001556  00000+0 -79660-4 0  9996
2 51815  53.2172 255.1449 0001439  91.5913 268.5244 15.08840454214464
STARLINK-3603           
1 51816U 22017BA  26005.33334491  .00069928  00000+0  26931-2 0  9992
2 51816  53.2162 252.5332 0000652  72.8841 269.3213 15.25739803  5708
STARLINK-3542           
1 51852U 22022A   26005.26222290 -.00002046  00000+0 -11046-3 0  9995
2 51852  53.2193 303.8622 0001890  98.1957 261.9250 15.08838355212182
STARLINK-3541           
1 51854U 22022C   26005.23615072  .00016315  00000+0  98897-3 0  9999
2 51854  53.2171 303.7411 0004994  85.3895 274.7669 15.10702197213445
STARLINK-3545           
1 51855U 22022D   26005.24381845  .00000409  00000+0  43779-4 0  9996
2 51855  53.2174 303.8618 0001272  89.3089 270.8049 15.08829868213399
STARLINK-3568           
1 51856U 22022E   26005.18958730 -.00000365  00000+0 -48278-5 0  9996
2 51856  53.2202 304.1978 0001332  89.3617 270.7528 15.08829395213463
STARLINK-3571           
1 51857U 22022F   26005.24478087 -.00000315  00000+0 -16882-5 0  9997
2 51857  53.2195 303.9466 0001015  79.4588 280.6519 15.08833002213447
STARLINK-3563           
1 51858U 22022G   26005.24750512 -.00000680  00000+0 -24663-4 0  9994
2 51858  53.2190 303.9212 0001468 100.9680 259.1478 15.08833248213444
STARLINK-3560           
1 51859U 22022H   26005.19786274  .00001912  00000+0  13822-3 0  9994
2 51859  53.2185 294.1579 0001598  94.4166 265.7009 15.08833240213575
STARLINK-3559           
1 51860U 22022J   26005.20426322 -.00000359  00000+0 -44734-5 0  9997
2 51860  53.2177 294.1178 0001498  94.9791 265.1372 15.08834611213537
STARLINK-3562           
1 51861U 22022K   26005.18955369 -.00001964  00000+0 -10536-3 0  9997
2 51861  53.2216 294.1848 0001658  75.7363 284.3813 15.08831260213446
STARLINK-3508           
1 51862U 22022L   26005.20058543 -.00000204  00000+0  53047-5 0  9990
2 51862  53.2189 294.1364 0001587 100.6118 259.5053 15.08836109213588
