[{"OBJECT_NAME":"STARLINK-3569","OBJECT_ID":"2022-017AV","EPOCH":"2026-01-05T00:54:21.178368","MEAN_MOTION":15.08836507,"ECCENTRICITY":0.00013975,"INCLINATION":53.2172,"RA_OF_ASC_NODE":264.8671,"ARG_OF_PERICENTER":79.9829,"MEAN_ANOMALY":280.132,"EPHEMERIS_TYPE":0,"CLASSIFICATION_TYPE":"U","NORAD_CAT_ID":51811,"ELEMENT_SET_NO":999,"REV_AT_EPOCH":21435,"BSTAR":2.8705812e-5,"MEAN_MOTION_DOT":1.69e-6,"MEAN_MOTION_DDOT":0},{"OBJECT_NAME":"STARLINK-3610","OBJECT_ID":"2022-017AW","EPOCH":"2026-01-04T23:30:53.195040","MEAN_MOTION":15.08838889,"ECCENTRICITY":0.0001417,"INCLINATION":53.2162,"RA_OF_ASC_NODE":255.1263,"ARG_OF_PERICENTER":86.822,"MEAN_ANOMALY":273.2934,"EPHEMERIS_TYPE":0,"CLASSIFICATION_TYPE":"U","NORAD_CAT_ID":51812,"ELEMENT_SET_NO":999,"REV_AT_EPOCH":21446,"BSTAR":-5.4006e-5,"MEAN_MOTION_DOT":-1.147e-5,"MEAN_MOTION_DDOT":0},{"OBJECT_NAME":"STARLINK-3552","OBJECT_ID":"2022-017AX","EPOCH":"2026-01-05T02:15:10.056096","MEAN_MOTION":15.08837044,"ECCENTRICITY":0.00013416,"INCLINATION":53.2171,"RA_OF_ASC_NODE":254.6428,"ARG_OF_PERICENTER":83.7234,"MEAN_ANOMALY":276.3911,"EPHEMERIS_TYPE":0,"CLASSIFICATION_TYPE":"U","NORAD_CAT_ID":51813,"ELEMENT_SET_NO":999,"REV_AT_EPOCH":21448,"BSTAR":5.5958866e-5,"MEAN_MOTION_DOT":6.03e-6,"MEAN_MOTION_DDOT":0},{"OBJECT_NAME":"STARLINK-3599","OBJECT_ID":"2022-017AY","EPOCH":"2026-01-05T02:31:03.160416","MEAN_MOTION":15.08841554,"ECCENTRICITY":0.0001381,"INCLINATION":53.2162,"RA_OF_ASC_NODE":254.5647,"ARG_OF_PERICENTER":89.4316,"MEAN_ANOMALY":270.6834,"EPHEMERIS_TYPE":0,"CLASSIFICATION_TYPE":"U","NORAD_CAT_ID":51814,"ELEMENT_SET_NO":999,"REV_AT_EPOCH":21448,"BSTAR":-4.671343e-6,"MEAN_MOTION_DOT":-3.62e-6,"MEAN_MOTION_DDOT":0},{"OBJECT_NAME":"STARLINK-3604","OBJECT_ID":"2022-017AZ","EPOCH":"2026-01-04T23:25:35.187744","MEAN_MOTION":15.08840454,"ECCENTRICITY":0.0001439,"INCLINATION":53.2172,"RA_OF_ASC_NODE":255.1449,"ARG_OF_PERICENTER":91.5913,"MEAN_ANOMALY":268.5244,"EPHEMERIS_TYPE":0,"CLASSIFICATION_TYPE":"U","NORAD_CAT_ID":51815,"ELEMENT_SET_NO":999,"REV_AT_EPOCH":21446,"BSTAR":-7.966e-5,"MEAN_MOTION_DOT":-1.556e-5,"MEAN_MOTION_DDOT":0},{"OBJECT_NAME":"STARLINK-3603","OBJECT_ID":"2022-017BA","EPOCH":"2026-01-05T08:00:01.000224","MEAN_MOTION":15.25739803,"ECCENTRICITY":6.523e-5,"INCLINATION":53.2162,"RA_OF_ASC_NODE":252.5332,"ARG_OF_PERICENTER":72.8841,"MEAN_ANOMALY":269.3213,"EPHEMERIS_TYPE":0,"CLASSIFICATION_TYPE":"U","NORAD_CAT_ID":51816,"ELEMENT_SET_NO":999,"REV_AT_EPOCH":570,"BSTAR":0.002693122,"MEAN_MOTION_DOT":0.00069928,"MEAN_MOTION_DDOT":0},{"OBJECT_NAME":"STARLINK-3542","OBJECT_ID":"2022-022A","EPOCH":"2026-01-05T06:17:36.058560","MEAN_MOTION":15.08838355,"ECCENTRICITY":0.00018902,"INCLINATION":53.2193,"RA_OF_ASC_NODE":303.8622,"ARG_OF_PERICENTER":98.1957,"MEAN_ANOMALY":261.925,"EPHEMERIS_TYPE":0,"CLASSIFICATION_TYPE":"U","NORAD_CAT_ID":51852,"ELEMENT_SET_NO":999,"REV_AT_EPOCH":21218,"BSTAR":-0.0001104588,"MEAN_MOTION_DOT":-2.046e-5,"MEAN_MOTION_DDOT":0},{"OBJECT_NAME":"STARLINK-3541","OBJECT_ID":"2022-022C","EPOCH":"2026-01-05T05:40:03.422208","MEAN_MOTION":15.10702197,"ECCENTRICITY":0.00049945,"INCLINATION":53.2171,"RA_OF_ASC_NODE":303.7411,"ARG_OF_PERICENTER":85.3895,"MEAN_ANOMALY":274.7669,"EPHEMERIS_TYPE":0,"CLASSIFICATION_TYPE":"U","NORAD_CAT_ID":51854,"ELEMENT_SET_NO":999,"REV_AT_EPOCH":21344,"BSTAR":0.00098896951,"MEAN_MOTION_DOT":0.00016315,"MEAN_MOTION_DDOT":0},{"OBJECT_NAME":"STARLINK-3545","OBJECT_ID":"2022-022D","EPOCH":"2026-01-05T05:51:05.914080","MEAN_MOTION":15.08829868,"ECCENTRICITY":0.0001272,"INCLINATION":53.2174,"RA_OF_ASC_NODE":303.8618,"ARG_OF_PERICENTER":89.3089,"MEAN_ANOMALY":270.8049,"EPHEMERIS_TYPE":0,"CLASSIFICATION_TYPE":"U","NORAD_CAT_ID":51855,"ELEMENT_SET_NO":999,"REV_AT_EPOCH":21339,"BSTAR":4.3779213e-5,"MEAN_MOTION_DOT":4.09e-6,"MEAN_MOTION_DDOT":0},{"OBJECT_NAME":"STARLINK-3568","OBJECT_ID":"2022-022E","EPOCH":"2026-01-05T04:33:00.342720","MEAN_MOTION":15.08829395,"ECCENTRICITY":0.00013324,"INCLINATION":53.2202,"RA_OF_ASC_NODE":304.1978,"ARG_OF_PERICENTER":89.3617,"MEAN_ANOMALY":270.7528,"EPHEMERIS_TYPE":0,"CLASSIFICATION_TYPE":"U","NORAD_CAT_ID":51856,"ELEMENT_SET_NO":999,"REV_AT_EPOCH":21346,"BSTAR":-4.827839e-6,"MEAN_MOTION_DOT":-3.65e-6,"MEAN_MOTION_DDOT":0},{"OBJECT_NAME":"STARLINK-3571","OBJECT_ID":"2022-022F","EPOCH":"2026-01-05T05:52:29.067168","MEAN_MOTION":15.08833002,"ECCENTRICITY":0.0001015,"INCLINATION":53.2195,"RA_OF_ASC_NODE":303.9466,"ARG_OF_PERICENTER":79.4588,"MEAN_ANOMALY":280.6519,"EPHEMERIS_TYPE":0,"CLASSIFICATION_TYPE":"U","NORAD_CAT_ID":51857,"ELEMENT_SET_NO":999,"REV_AT_EPOCH":21344,"BSTAR":-1.688244e-6,"MEAN_MOTION_DOT":-3.15e-6,"MEAN_MOTION_DDOT":0},{"OBJECT_NAME":"STARLINK-3563","OBJECT_ID":"2022-022G","EPOCH":"2026-01-05T05:56:24.442368","MEAN_MOTION":15.08833248,"ECCENTRICITY":0.00014686,"INCLINATION":53.219,"RA_OF_ASC_NODE":303.9212,"ARG_OF_PERICENTER":100.968,"MEAN_ANOMALY":259.1478,"EPHEMERIS_TYPE":0,"CLASSIFICATION_TYPE":"U","NORAD_CAT_ID":51858,"ELEMENT_SET_NO":999,"REV_AT_EPOCH":21344,"BSTAR":-2.4662947e-5,"MEAN_MOTION_DOT":-6.8e-6,"MEAN_MOTION_DDOT":0},{"OBJECT_NAME":"STARLINK-3560","OBJECT_ID":"2022-022H","EPOCH":"2026-01-05T04:44:55.340736","MEAN_MOTION":15.0883324,"ECCENTRICITY":0.00015981,"INCLINATION":53.2185,"RA_OF_ASC_NODE":294.1579,"ARG_OF_PERICENTER":94.4166,"MEAN_ANOMALY":265.7009,"EPHEMERIS_TYPE":0,"CLASSIFICATION_TYPE":"U","NORAD_CAT_ID":51859,"ELEMENT_SET_NO":999,"REV_AT_EPOCH":21357,"BSTAR":0.00013821997,"MEAN_MOTION_DOT":1.912e-5,"MEAN_MOTION_DDOT":0},{"OBJECT_NAME":"STARLINK-3559","OBJECT_ID":"2022-022J","EPOCH":"2026-01-05T04:54:08.342208","MEAN_MOTION":15.08834611,"ECCENTRICITY":0.00014983,"INCLINATION":53.2177,"RA_OF_ASC_NODE":294.1178,"ARG_OF_PERICENTER":94.9791,"MEAN_ANOMALY":265.1372,"EPHEMERIS_TYPE":0,"CLASSIFICATION_TYPE":"U","NORAD_CAT_ID":51860,"ELEMENT_SET_NO":999,"REV_AT_EPOCH":21353,"BSTAR":-4.473442e-6,"MEAN_MOTION_DOT":-3.59e-6,"MEAN_MOTION_DDOT":0},{"OBJECT_NAME":"STARLINK-3562","OBJECT_ID":"2022-022K","EPOCH":"2026-01-05T04:32:57.438816","MEAN_MOTION":15.0883126,"ECCENTRICITY":0.00016583,"INCLINATION":53.2216,"RA_OF_ASC_NODE":294.1848,"ARG_OF_PERICENTER":75.7363,"MEAN_ANOMALY":284.3813,"EPHEMERIS_TYPE":0,"CLASSIFICATION_TYPE":"U","NORAD_CAT_ID":51861,"ELEMENT_SET_NO":999,"REV_AT_EPOCH":21344,"BSTAR":-0.00010535845,"MEAN_MOTION_DOT":-1.964e-5,"MEAN_MOTION_DDOT":0},{"OBJECT_NAME":"STARLINK-3508","OBJECT_ID":"2022-022L","EPOCH":"2026-01-05T04:48:50.581152","MEAN_MOTION":15.08836109,"ECCENTRICITY":0.00015875,"INCLINATION":53.2189,"RA_OF_ASC_NODE":294.1364,"ARG_OF_PERICENTER":100.6118,"MEAN_ANOMALY":259.5053,"EPHEMERIS_TYPE":0,"CLASSIFICATION_TYPE":"U","NORAD_CAT_ID":51862,"ELEMENT_SET_NO":999,"REV_AT_EPOCH":21358,"BSTAR":5.304746e-6,"MEAN_MOTION_DOT":-2.04e-6,"MEAN_MOTION_DDOT":0}]
